[{"OBJECT_NAME":"HULIANWANG DIGUI-119","OBJECT_ID":"2025-295A","EPOCH":"2026-03-09T18:00:52.146720","MEAN_MOTION":13.43180713,"ECCENTRICITY":4.744e-5,"INCLINATION":50.0033,"RA_OF_ASC_NODE":22.8877,"ARG_OF_PERICENTER":136.1228,"MEAN_ANOMALY":223.9688,"EPHEMERIS_TYPE":0,"CLASSIFICATION_TYPE":"U","NORAD_CAT_ID":67059,"ELEMENT_SET_NO":999,"REV_AT_EPOCH":1226,"BSTAR":0.00011344002,"MEAN_MOTION_DOT":-6.4e-7,"MEAN_MOTION_DDOT":0},{"OBJECT_NAME":"NIMBUS 4","OBJECT_ID":"1970-025A","EPOCH":"2026-03-09T18:16:50.188800","MEAN_MOTION":13.44749784,"ECCENTRICITY":0.00068562,"INCLINATION":99.9607,"RA_OF_ASC_NODE":350.8183,"ARG_OF_PERICENTER":238.0406,"MEAN_ANOMALY":177.2161,"EPHEMERIS_TYPE":0,"CLASSIFICATION_TYPE":"U","NORAD_CAT_ID":4362,"ELEMENT_SET_NO":999,"REV_AT_EPOCH":74348,"BSTAR":7.8934684e-5,"MEAN_MOTION_DOT":1.0e-8,"MEAN_MOTION_DDOT":0}]
